ONEWEB-0196             
1 48218U 21031J   25326.55726670  .00000175  00000+0  43797-3 0  9991
2 48218  87.8984 330.8766 0001809  85.4654 274.6682 13.14501933221080
ONEWEB-0183             
1 48219U 21031K   25326.53188855  .00000136  00000+0  33288-3 0  9998
2 48219  87.8974 330.8874 0001612  91.7067 268.4248 13.14502095221179
ONEWEB-0185             
1 48220U 21031L   25326.55806956  .00000168  00000+0  41994-3 0  9999
2 48220  87.8993 330.8542 0001421  82.1961 277.9330 13.14503061221103
ONEWEB-0187             
1 48221U 21031M   25326.53810598  .00000186  00000+0  46651-3 0  9990
2 48221  87.8980 330.9027 0001675  82.6327 277.4993 13.14503250221112
ONEWEB-0192             
1 48222U 21031N   25326.58421749 -.00000142  00000+0 -41691-3 0  9995
2 48222  87.8975 330.8844 0001882  87.4620 272.6725 13.14501425221035
ONEWEB-0219             
1 48223U 21031P   25326.56360646 -.00000001  00000+0 -36532-4 0  9995
2 48223  87.8987 330.8650 0001632  83.6701 276.4614 13.14501778221237
ONEWEB-0202             
1 48224U 21031Q   25326.46847022  .00000223  00000+0  56726-3 0  9993
2 48224  87.8980 330.8967 0002321  75.0009 285.1377 13.14502953221200
ONEWEB-0204             
1 48225U 21031R   25326.57868194 -.00000135  00000+0 -39946-3 0  9998
2 48225  87.8985 330.8639 0001561  96.3615 263.7692 13.14502131221116
